STARLINK-30981          
1 58494U 23186X   24186.61633003  .00001130  00000+0  98740-4 0  9999
2 58494  43.0048 158.3458 0001263 272.5336  87.5361 15.02531608 33620
STARLINK-31002          
1 58495U 23186Y   24186.61299545  .00000957  00000+0  85909-4 0  9998
2 58495  43.0036 158.3227 0001176 274.9418  85.1290 15.02536790 33792
2023-187A               
1 58496U 23187A   24187.22065109  .00003625  00000+0  48794-3 0  9990
2 58496  97.9874 263.0135 0011367 303.6692  56.3435 14.79795279 31634
MISRSAT-2               
1 58497U 23187B   24187.19181435  .00001893  00000+0  26172-3 0  9999
2 58497  97.9886 262.9316 0010660 302.0571  57.9604 14.79223790 31618
2023-187C               
1 58498U 23187C   24187.21875707  .00003051  00000+0  41239-3 0  9994
2 58498  97.9879 263.0286 0010554 301.6457  58.3725 14.79742909 31627
DOORY-SAT               
1 58500U 23188A   24187.20462789  .00001140  00000+0  19103-3 0  9992
2 58500  46.9828 171.3889 0009290 260.5145  99.4698 14.76283597 31604
2023-189A               
1 58502U 23189A   24187.18074911  .00004699  00000+0  20143-3 0  9996
2 58502  97.4605 193.2699 0011850 257.8175 102.1735 15.23188993 32421
2023-189B               
1 58503U 23189B   24187.20843814  .00013853  00000+0  52710-3 0  9993
2 58503  97.4579 193.8301 0010984 258.5523 101.4482 15.26818840 32469
2023-190A               
1 58505U 23190A   24187.16522815  .00000082  00000+0  12323-3 0  9993
2 58505  86.5036 218.8343 0001662  92.0869 268.0464 13.39481529 29377
STARLINK-31026          
1 58508U 23191A   24186.72993415  .00000219  00000+0  31308-4 0  9993
2 58508  43.0031 197.7153 0001278 274.8187  85.2509 15.02536989 33224
STARLINK-31020          
1 58509U 23191B   24187.12559009  .00000056  00000+0  19207-4 0  9999
2 58509  43.0035 196.3747 0001487 273.2210  86.8463 15.02534394 33184
STARLINK-30989          
1 58510U 23191C   24186.74190107  .00001084  00000+0  95322-4 0  9992
2 58510  43.0037 196.9518 0001217 280.3324  79.7381 15.02537372 33264
STARLINK-30968          
1 58511U 23191D   24186.73859133  .00000374  00000+0  42793-4 0  9998
2 58511  43.0020 196.9261 0001503 266.0454  94.0217 15.02528043 33235
STARLINK-30982          
1 58512U 23191E   24186.73524243  .00000813  00000+0  75238-4 0  9998
2 58512  43.0027 196.8990 0001236 276.3629  83.7072 15.02537543 33231
STARLINK-30998          
1 58513U 23191F   24186.73191350  .00000633  00000+0  61929-4 0  9990
2 58513  43.0009 196.8711 0001257 274.8274  85.2425 15.02534988 33267
STARLINK-30983          
1 58514U 23191G   24186.75510597  .00001004  00000+0  89401-4 0  9999
2 58514  43.0030 196.1969 0001428 275.1825  84.8854 15.02533692 32896
STARLINK-31017          
1 58515U 23191H   24187.15771963 -.00000184  00000+0  28596-5 0  9999
2 58515  43.0023 120.4219 0001383 274.4569  85.6129 15.40687086 34013
STARLINK-31028          
1 58516U 23191J   24186.72525085  .00000008  00000+0  15659-4 0  9993
2 58516  43.0011 196.8201 0001206 273.5390  86.5314 15.02538043 33230
STARLINK-31011          
1 58517U 23191K   24186.72858294 -.00000239  00000+0 -26193-5 0  9999
2 58517  43.0018 196.8470 0001075 273.6048  86.4671 15.02538452 33230
STARLINK-31021          
1 58518U 23191L   24186.74511085 -.00000048  00000+0  11491-4 0  9997
2 58518  43.0023 196.0959 0001161 272.6810  87.3899 15.02537284 33248
STARLINK-31010          
1 58519U 23191M   24186.74843842 -.00000261  00000+0 -42434-5 0  9997
2 58519  43.0032 196.0885 0001196 275.7220  84.3485 15.02536801 33246
STARLINK-31003          
1 58520U 23191N   24187.18726909  .00000493  00000+0  51537-4 0  9990
2 58520  43.0012 194.2663 0001207 271.9654  88.1050 15.02533046 33330
STARLINK-31015          
1 58521U 23191P   24187.18393969 -.00000436  00000+0 -17217-4 0  9993
2 58521  43.0009 194.2434 0001238 271.9504  88.1196 15.02537842 33273
STARLINK-31023          
1 58522U 23191Q   24186.71526451  .00001349  00000+0  11492-3 0  9996
2 58522  43.0015 196.7442 0001339 275.0813  84.9877 15.02534212 33231
STARLINK-30932          
1 58523U 23191R   24187.04432286  .00000155  00000+0  26552-4 0  9994
2 58523  42.9985 194.9094 0001117 262.1268  97.9447 15.02537867 33241
STARLINK-30992          
1 58524U 23191S   24186.30973512  .00000172  00000+0  27789-4 0  9997
2 58524  43.0014 198.8611 0001170 271.6832  88.3876 15.02539628 33175
STARLINK-30948          
1 58525U 23191T   24186.30640638  .00001360  00000+0  11571-3 0  9999
2 58525  43.0008 198.8355 0001041 273.7172  86.3552 15.02542853 33174
STARLINK-31013          
1 58526U 23191U   24186.30307510  .00001528  00000+0  12822-3 0  9995
2 58526  43.0015 198.8117 0001269 271.6818  88.3879 15.02528548 33174
STARLINK-31001          
1 58527U 23191V   24187.01766983  .00001586  00000+0  13249-3 0  9996
2 58527  43.0032 194.6270 0001145 274.3145  85.7566 15.02524553 33147
STARLINK-31004          
1 58528U 23191W   24187.03098667 -.00001722  00000+0 -11232-3 0  9990
2 58528  42.9992 194.8141 0001632 278.5160  81.5497 15.02562966 33309
STARLINK-30988          
1 58529U 23191X   24186.76176171  .00000266  00000+0  34798-4 0  9990
2 58529  43.0026 196.2340 0001252 277.5571  82.5129 15.02535497 33245
STARLINK-31009          
1 58530U 23191Y   24186.75844401  .00002286  00000+0  18417-3 0  9992
2 58530  43.0010 196.2087 0001519 269.5184  90.5485 15.02547856 33263
STARLINK-31012          
1 58531U 23192A   24186.85000795  .00010200  00000+0  38024-3 0  9996
2 58531  53.1588  30.2594 0000626  94.6491 265.4580 15.28032361 32145
STARLINK-31035          
1 58532U 23192B   24186.94821913  .00003557  00000+0  14101-3 0  9997
2 58532  53.1602  28.0065 0001504  85.1776 274.9395 15.28026928 32183
STARLINK-31036          
1 58533U 23192C   24186.85493743  .00000781  00000+0  40861-4 0  9993
2 58533  53.1622  29.6013 0001361  89.4767 270.6389 15.28026840 32150
STARLINK-30936          
1 58534U 23192D   24186.95743179  .00001068  00000+0  51211-4 0  9996
2 58534  53.1618  29.5125 0001274 103.0755 257.0387 15.28022836 33353
STARLINK-31032          
1 58535U 23192E   24186.84533287  .00005960  00000+0  22761-3 0  9994
2 58535  53.1588  30.2246 0000771  75.6449 284.4637 15.28028903 32147
STARLINK-31037          
1 58536U 23192F   24186.85007208  .00002618  00000+0  10714-3 0  9997
2 58536  53.1597  28.1545 0000656 101.1417 258.9656 15.28012776 32179
STARLINK-31041          
1 58537U 23192G   24186.96678425  .00006084  00000+0  23200-3 0  9990
2 58537  53.1612  29.5617 0001354  97.8988 262.2165 15.28038899 33362
STARLINK-31014          
1 58538U 23192H   24186.82695900  .00002393  00000+0  99016-4 0  9991
2 58538  53.1617  30.1145 0001272 108.4441 251.6697 15.28022599 32141
STARLINK-31055          
1 58539U 23192J   24186.88768375  .00007002  00000+0  26511-3 0  9996
2 58539  53.1610  29.7829 0001163  82.3450 277.7682 15.28030863 32154
STARLINK-31019          
1 58540U 23192K   24186.96211117  .00010705  00000+0  39826-3 0  9991
2 58540  53.1626  29.5351 0001046  89.0784 271.0336 15.28047624 33354
STARLINK-31045          
1 58541U 23192L   24186.90415411  .00003866  00000+0  28937-3 0  9990
2 58541  53.1601  42.2495 0001265  84.7794 275.3340 15.04911436 33161
STARLINK-31030          
1 58542U 23192M   24186.88735047  .00003308  00000+0  13200-3 0  9996
2 58542  53.1602  29.7810 0000976  67.1912 292.9191 15.28025564 32150
STARLINK-31049          
1 58543U 23192N   24186.94807162  .00002075  00000+0  87523-4 0  9992
2 58543  53.1598  29.4489 0001159 104.2435 255.8694 15.28029792 33357
STARLINK-31048          
1 58544U 23192P   24186.94352917 -.00003181  00000+0 -10219-3 0  9994
2 58544  53.1600  27.9608 0001055  90.8944 269.2176 15.28030404 33387
STARLINK-31057          
1 58545U 23192Q   24186.94339122  .00000902  00000+0  45210-4 0  9994
2 58545  53.1604  29.4157 0000991 112.9799 247.1305 15.28025741 32162
STARLINK-31050          
1 58546U 23192R   24186.93871592  .00001986  00000+0  84329-4 0  9993
2 58546  53.1601  29.3863 0001385  91.7800 268.3358 15.28025079 32165
STARLINK-31063          
1 58547U 23192S   24186.96147649  .00001712  00000+0  74439-4 0  9994
2 58547  53.1618  27.3521 0001404  93.9044 266.2117 15.28033499 33176
STARLINK-31016          
1 58548U 23192T   24186.93417533  .00001742  00000+0  75510-4 0  9998
2 58548  53.1614  27.9017 0000945  89.9183 270.1925 15.28028317 32181
STARLINK-31053          
1 58549U 23192U   24186.86863060  .00000977  00000+0  47931-4 0  9996
2 58549  53.1590  29.6642 0000934 101.4351 258.6754 15.28018968 32152
STARLINK-31056          
1 58550U 23192V   24186.85918353  .00025284  00000+0  92228-3 0  9999
2 58550  53.1582  28.8999 0001095  59.6340 300.4768 15.28023525 32169
STARLINK-30999          
1 58551U 23192W   24186.93210281  .00007397  00000+0  27937-3 0  9994
2 58551  53.1621  19.9989 0001443 101.9914 258.1247 15.28028364 32290
STARLINK-31046          
1 58552U 23192X   24186.98541181  .00012406  00000+0  45959-3 0  9997
2 58552  53.1589  28.9702 0001067  77.7671 282.3448 15.28035836 33362
2023-193A               
1 58553U 23193A   24187.18949718  .00022064  00000+0  40734-3 0  9997
2 58553  97.2497 196.1663 0017515 223.8745 136.1116 15.48938108 32278
2023-193B               
1 58554U 23193B   24187.20999507  .00027551  00000+0  61902-3 0  9998
2 58554  97.2512 194.6559 0006364 205.4457 154.6479 15.43301098 32173
2023-193C               
1 58555U 23193C   24187.16529887  .00006103  00000+0  25457-3 0  9999
2 58555  97.2452 189.9678 0036762 280.8288  78.8813 15.23412850 31849
2023-194A               
1 58557U 23194A   24187.21756330  .00012141  00000+0  50554-3 0  9998
2 58557  34.9955 215.0125 0005874 329.8425  30.1951 15.22929104 31749
2023-194B               
1 58558U 23194B   24187.21238556  .00003282  00000+0  13910-3 0  9995
2 58558  34.9939 214.9563 0004846 247.5571 112.4630 15.22651008 31734
